{
  "type": "FeatureCollection",
  "features": [
    {
      "type": "Feature",
      "properties": {
        "norad_id": 31026,
        "name": "FENGYUN 1C DEB",
        "group": "fengyun-1c-debris",
        "lat": -75.88000237199425,
        "lon": -48.54946019480936,
        "alt_km": 929.5361916221846,
        "timestamp": "2025-12-03T08:58:46.281728+00:00",
        "meta_object_name": "FENGYUN 1C DEB",
        "meta_object_id": "1999-025BDU",
        "meta_epoch": "2025-12-03T02:30:12.160224",
        "meta_mean_motion": 13.8339293,
        "meta_eccentricity": 0.0133897,
        "meta_inclination": 98.7779,
        "meta_ra_of_asc_node": 273.3037,
        "meta_arg_of_pericenter": 208.695,
        "meta_mean_anomaly": 167.8367,
        "meta_ephemeris_type": 0,
        "meta_classification_type": "U",
        "meta_norad_cat_id": 31026,
        "meta_element_set_no": 999,
        "meta_rev_at_epoch": 67893,
        "meta_bstar": 0.00019869,
        "meta_mean_motion_dot": 1.94e-06,
        "meta_mean_motion_ddot": 0,
        "tle_line1": "1 31026U 99025BDU 25337.10430741  .00000194  00000+0  19869-3 0  9996",
        "tle_line2": "2 31026  98.7779 273.3037 0133897 208.6950 167.8367 13.83392930678939"
      },
      "geometry": {
        "type": "Point",
        "coordinates": [
          -48.54946019480936,
          -75.88000237199425
        ]
      }
    },
    {
      "type": "Feature",
      "properties": {
        "norad_id": 31028,
        "name": "FENGYUN 1C DEB",
        "group": "fengyun-1c-debris",
        "lat": 77.81674838674421,
        "lon": 135.03263169050857,
        "alt_km": 1014.2134982271809,
        "timestamp": "2025-12-03T08:58:46.281739+00:00",
        "meta_object_name": "FENGYUN 1C DEB",
        "meta_object_id": "1999-025BDW",
        "meta_epoch": "2025-11-26T01:54:24.970752",
        "meta_mean_motion": 13.89048666,
        "meta_eccentricity": 0.01654825,
        "meta_inclination": 98.7043,
        "meta_ra_of_asc_node": 263.016,
        "meta_arg_of_pericenter": 340.0889,
        "meta_mean_anomaly": 19.3862,
        "meta_ephemeris_type": 0,
        "meta_classification_type": "U",
        "meta_norad_cat_id": 31028,
        "meta_element_set_no": 999,
        "meta_rev_at_epoch": 61772,
        "meta_bstar": 0.00043609826,
        "meta_mean_motion_dot": 5.49e-06,
        "meta_mean_motion_ddot": 0,
        "tle_line1": "1 31028U 99025BDW 25330.07945568  .00000549  00000+0  43610-3 0  9990",
        "tle_line2": "2 31028  98.7043 263.0160 0165482 340.0889  19.3862 13.89048666617726"
      },
      "geometry": {
        "type": "Point",
        "coordinates": [
          135.03263169050857,
          77.81674838674421
        ]
      }
    },
    {
      "type": "Feature",
      "properties": {
        "norad_id": 31029,
        "name": "FENGYUN 1C DEB",
        "group": "fengyun-1c-debris",
        "lat": -64.39016418498758,
        "lon": -106.97098238422555,
        "alt_km": 847.2975946855104,
        "timestamp": "2025-12-03T08:58:46.281756+00:00",
        "meta_object_name": "FENGYUN 1C DEB",
        "meta_object_id": "1999-025BDX",
        "meta_epoch": "2025-12-03T04:57:42.736032",
        "meta_mean_motion": 14.34292633,
        "meta_eccentricity": 0.0090008,
        "meta_inclination": 98.8585,
        "meta_ra_of_asc_node": 233.8702,
        "meta_arg_of_pericenter": 101.5229,
        "meta_mean_anomaly": 49.0087,
        "meta_ephemeris_type": 0,
        "meta_classification_type": "U",
        "meta_norad_cat_id": 31029,
        "meta_element_set_no": 999,
        "meta_rev_at_epoch": 97659,
        "meta_bstar": 0.00040454,
        "meta_mean_motion_dot": 1.143e-05,
        "meta_mean_motion_ddot": 0,
        "tle_line1": "1 31029U 99025BDX 25337.20674463  .00001143  00000+0  40454-3 0  9990",
        "tle_line2": "2 31029  98.8585 233.8702 0090008 101.5229  49.0087 14.34292633976593"
      },
      "geometry": {
        "type": "Point",
        "coordinates": [
          -106.97098238422555,
          -64.39016418498758
        ]
      }
    },
    {
      "type": "Feature",
      "properties": {
        "norad_id": 31030,
        "name": "FENGYUN 1C DEB",
        "group": "fengyun-1c-debris",
        "lat": 63.57625098368912,
        "lon": -122.57510712379869,
        "alt_km": 786.7065529709198,
        "timestamp": "2025-12-03T08:58:46.281767+00:00",
        "meta_object_name": "FENGYUN 1C DEB",
        "meta_object_id": "1999-025BDY",
        "meta_epoch": "2025-12-03T03:30:57.299328",
        "meta_mean_motion": 14.23607015,
        "meta_eccentricity": 0.0028215,
        "meta_inclination": 98.7686,
        "meta_ra_of_asc_node": 39.1024,
        "meta_arg_of_pericenter": 111.2602,
        "meta_mean_anomaly": 277.6475,
        "meta_ephemeris_type": 0,
        "meta_classification_type": "U",
        "meta_norad_cat_id": 31030,
        "meta_element_set_no": 999,
        "meta_rev_at_epoch": 96568,
        "meta_bstar": 0.0012154,
        "meta_mean_motion_dot": 2.737e-05,
        "meta_mean_motion_ddot": 0,
        "tle_line1": "1 31030U 99025BDY 25337.14649652  .00002737  00000+0  12154-2 0  9992",
        "tle_line2": "2 31030  98.7686  39.1024 0028215 111.2602 277.6475 14.23607015965684"
      },
      "geometry": {
        "type": "Point",
        "coordinates": [
          -122.57510712379869,
          63.57625098368912
        ]
      }
    },
    {
      "type": "Feature",
      "properties": {
        "norad_id": 31031,
        "name": "FENGYUN 1C DEB",
        "group": "fengyun-1c-debris",
        "lat": -27.07379150260044,
        "lon": 69.54554139821126,
        "alt_km": 808.2067097543504,
        "timestamp": "2025-12-03T08:58:46.281777+00:00",
        "meta_object_name": "FENGYUN 1C DEB",
        "meta_object_id": "1999-025BDZ",
        "meta_epoch": "2025-12-02T14:00:02.170080",
        "meta_mean_motion": 14.20954298,
        "meta_eccentricity": 0.0027396,
        "meta_inclination": 99.0707,
        "meta_ra_of_asc_node": 253.4179,
        "meta_arg_of_pericenter": 216.3895,
        "meta_mean_anomaly": 268.0113,
        "meta_ephemeris_type": 0,
        "meta_classification_type": "U",
        "meta_norad_cat_id": 31031,
        "meta_element_set_no": 999,
        "meta_rev_at_epoch": 96710,
        "meta_bstar": 0.00054735505,
        "meta_mean_motion_dot": 1.143e-05,
        "meta_mean_motion_ddot": 0,
        "tle_line1": "1 31031U 99025BDZ 25336.58335845  .00001143  00000+0  54736-3 0  9999",
        "tle_line2": "2 31031  99.0707 253.4179 0027396 216.3895 268.0113 14.20954298967102"
      },
      "geometry": {
        "type": "Point",
        "coordinates": [
          69.54554139821126,
          -27.07379150260044
        ]
      }
    },
    {
      "type": "Feature",
      "properties": {
        "norad_id": 31032,
        "name": "FENGYUN 1C DEB",
        "group": "fengyun-1c-debris",
        "lat": 41.124133358206045,
        "lon": 174.2259787425167,
        "alt_km": 870.2400634174419,
        "timestamp": "2025-12-03T08:58:46.281787+00:00",
        "meta_object_name": "FENGYUN 1C DEB",
        "meta_object_id": "1999-025BEA",
        "meta_epoch": "2025-12-01T23:54:42.533568",
        "meta_mean_motion": 14.02131489,
        "meta_eccentricity": 0.01386197,
        "meta_inclination": 99.4015,
        "meta_ra_of_asc_node": 344.4881,
        "meta_arg_of_pericenter": 225.3673,
        "meta_mean_anomaly": 163.2841,
        "meta_ephemeris_type": 0,
        "meta_classification_type": "U",
        "meta_norad_cat_id": 31032,
        "meta_element_set_no": 999,
        "meta_rev_at_epoch": 94831,
        "meta_bstar": 0.0014112965,
        "meta_mean_motion_dot": 2.299e-05,
        "meta_mean_motion_ddot": 0,
        "tle_line1": "1 31032U 99025BEA 25335.99632562  .00002299  00000+0  14113-2 0  9997",
        "tle_line2": "2 31032  99.4015 344.4881 0138619 225.3673 163.2841 14.02131489948310"
      },
      "geometry": {
        "type": "Point",
        "coordinates": [
          174.2259787425167,
          41.124133358206045
        ]
      }
    },
    {
      "type": "Feature",
      "properties": {
        "norad_id": 31033,
        "name": "FENGYUN 1C DEB",
        "group": "fengyun-1c-debris",
        "lat": 60.0858828949751,
        "lon": -58.9287684952429,
        "alt_km": 767.2496144597471,
        "timestamp": "2025-12-03T08:58:46.281798+00:00",
        "meta_object_name": "FENGYUN 1C DEB",
        "meta_object_id": "1999-025BEB",
        "meta_epoch": "2025-12-02T16:40:35.560992",
        "meta_mean_motion": 14.27435794,
        "meta_eccentricity": 0.0153769,
        "meta_inclination": 98.4374,
        "meta_ra_of_asc_node": 315.3655,
        "meta_arg_of_pericenter": 139.8309,
        "meta_mean_anomaly": 34.404,
        "meta_ephemeris_type": 0,
        "meta_classification_type": "U",
        "meta_norad_cat_id": 31033,
        "meta_element_set_no": 999,
        "meta_rev_at_epoch": 97202,
        "meta_bstar": 0.00021497,
        "meta_mean_motion_dot": 5.55e-06,
        "meta_mean_motion_ddot": 0,
        "tle_line1": "1 31033U 99025BEB 25336.69485603  .00000555  00000+0  21497-3 0  9995",
        "tle_line2": "2 31033  98.4374 315.3655 0153769 139.8309  34.4040 14.27435794972020"
      },
      "geometry": {
        "type": "Point",
        "coordinates": [
          -58.9287684952429,
          60.0858828949751
        ]
      }
    }
  ]
}